#dP2023  6 21  0  0  0.00000000      96 __u+U ITR00 FIT  IAC
## 2267 259200.00000000   900.00000000 60116 0.0000000000000
+  119   C06C07C08C09C10C11C12C13C14C16C19C20C21C22C23C24C25
+        C26C27C28C29C30C32C33C34C35C36C37C38C39C40C41C42C43
+        C44C45C46E02E03E04E05E07E08E09E10E11E12E13E14E15E18
+        E19E21E24E25E26E27E30E31E33E34E36G01G02G03G04G05G06
+        G07G08G09G10G11G12G13G14G15G16G17G18G19G20G21G22G23
+        G24G25G26G27G28G29G30G31G32J02J03J04R01R02R03R04R05
+        R07R08R09R11R12R13R14R15R16R17R18R19R20R21R22R24R25
++         8  9  8  6 10  7  7  8  7  7  6  6  7  6  5  6  7
++         5  6  7  6  6  7  7  7  6  6  7  8  7  7  6  6  8
++         6  6  6  6  6  7  0  5  6  6  5  6  5  6  7  6  6
++         6  6  6  5  6  5  5  5  6  6  6  5  6  5  5  6  5
++         6  6  5  6  5  5  5  6  4  6  6  5  5  6  5  5  8
++         5  5  5  6  6  7  5  5  5  8  8  8  7  5  6  5  7
++         7  7  6  5  5  6  6  6  6  6  7  5  7  7  6  7  7
%c M  cc GPS ccc cccc cccc cccc cccc ccccc ccccc ccccc ccccc
%c cc cc ccc ccc cccc cccc cccc cccc ccccc ccccc ccccc ccccc
%f  0.0000000  0.000000000  0.00000000000  0.000000000000000
%f  0.0000000  0.000000000  0.00000000000  0.000000000000000
%i    0    0    0    0      0      0      0      0         0
%i    0    0    0    0      0      0      0      0         0
/* INFORMATION & ANALYSIS CENTER (IAC)      ULTRA-RAPID DATA
/* S/V CLOCKS ARE ALIGNED TO GNSS TIME                      
/* G:C1WC2W R:C1PC2P E:C1XC5X C:C2IC6I J:C1CC2S             
/* PCV:IGS20_2247 OL/AL:FES2004  NONE     YN ORB:CoN CLK:CoN
*  2023 06 21 21 45  0.00000000
PC06 -15414.383325  38735.646133   5171.670706   -173.894038
PC07  -1745.619574  32733.724755  26677.105919   -207.854254
PC08 -12931.896378  20558.749390 -34524.437949    452.440963
PC09  -8630.608158  38068.561687  15599.065912    506.687625
PC10   5005.081292  35411.013778  23040.824163    -92.591530
PC11  16130.483975 -13854.912964 -18000.066359    686.413707
PC12  13989.530827   7002.054957 -23078.810660    730.163858
PC13  -4678.723732  22278.141593 -35375.354958    300.887334
PC14  17434.255589  -3757.414125  21495.539549    445.873356
PC16 -16045.653313  38633.062831   4088.481566     34.554079
PC19  -9896.512716  12186.684764 -23048.152158   -926.823645
PC20 -21308.725257  -3663.703240 -17610.687113    487.619905
PC21  20745.642184  18663.218588   1033.018064   -925.854377
PC22   7795.369114  21882.852110 -15490.166118   -430.311066
PC23   3206.760129 -17272.043134 -21671.408607   -965.395961
PC24  26919.430572  -2965.846561   6682.137005     88.744359
PC25  20369.571728 -15248.892010 -11443.078166    152.205500
PC26  17800.493855   8993.884084  19494.819342   -138.058885
PC27 -10669.841710 -15795.342661  20360.110190    158.580635
PC28    745.298329 -26654.919755   8220.468328    117.888341
PC29 -12331.537126  22639.319496  10675.678770    137.166469
PC30 -16592.311691   4049.254487  22053.783418     -1.428840
PC32 -20821.530004 -18541.066916   -908.872381   -546.335798
PC33   9981.058718 -12158.880991  23052.586635   -899.193585
PC34  16710.013343  -5596.284895 -21658.606724    198.238227
PC35   -100.579375  26802.053113  -7724.074279    603.404928
PC36 -21269.396826  14485.191817  10829.293479   -370.337319
PC37 -16684.641588 -10027.009448 -19985.168837   -786.898572
PC38 -20557.697237  21831.656952 -29680.589020     86.652781
PC39 -17523.971596  38119.655746  -2369.129879     -3.436456
PC40  -4526.713626  29143.394173  30232.487023    -26.964625
PC41  -7160.524610 -21718.357762  16035.203259   -916.568532
PC42  21865.803449   4882.315355  16700.737360   -640.408298
PC43  12834.799221 -22027.483097 -11385.835573     27.259406
PC44  11316.942793  15553.143776 -20225.616357    145.359690
PC45  -2700.747155  17095.001039  21900.110958   -113.244474
PC46 -27114.172543   4016.977478  -5333.894524    -63.258526
PE02  -7994.048620  15008.447741  24228.557470     45.406333
PE03  -3249.764458  25961.913692 -13855.655727    -28.652848
PE04 -10087.632643 -27540.362274  -3960.936570   -149.962060
PE05      0.000000      0.000000      0.000000 999999.999999
PE07  17739.835952  13230.575648  19674.293239    -54.394357
PE08   9918.358330  27657.608936   3662.016718   -102.644595
PE09 -17614.057704 -13382.967789 -19652.346929    -58.286950
PE10 -11592.807946 -11043.309538  24881.810926   -542.934876
PE11 -19196.661994  -1468.064157  22461.530320   2286.375473
PE12  -2920.717532 -18198.237810  23154.991400   -588.903051
PE13  18727.879324   2097.534539 -22832.447844    -19.299480
PE14  -5924.379743 -23164.946624   2451.467161    260.743941
PE15   2588.052213  18349.614207 -23082.283209    -31.249437
PE18  13993.178634  26622.057167 -11816.806985    208.930685
PE19   5095.084129 -24433.722870  15921.864336  -2246.611925
PE21  24664.919204  -4370.734899 -15771.280978   -536.346388
PE24 -27741.028121  -9929.690354  -2934.235252   -167.888380
PE25 -24865.879782   4137.758725  15522.831844   -607.131977
PE26  23663.261105 -15628.358008  -8486.557739    140.948900
PE27  27974.856486   9399.363320   2265.685649    -80.473361
PE30  14195.386778  17648.869720  19046.495445   -274.407165
PE31 -14785.466497 -17475.807464 -18755.720300   -526.382168
PE33  14955.519923 -23635.655043   9696.893119   -442.861222
PE34 -14789.663470  23682.274025  -9852.316760    -52.059109
PE36 -23685.409278  15163.938561   9214.806906    -74.739844
PG01 -11844.801003  20725.779726 -11600.127408    176.989939
PG02 -15427.005284  21002.648353  -4193.925869   -583.572880
PG03  -2981.484206  14619.551616 -22114.474150   -261.943952
PG04  -1229.469516  25089.059849  -8437.498882     74.692623
PG05  19347.236299  -6865.418453  16737.488104   -132.000681
PG06  17954.168975   1071.432584 -19518.861056    583.709438
PG07   3220.302962  16966.404758  20520.334757    146.041857
PG08  -8434.645718  17557.543004  17801.678118   -128.498864
PG09   7044.206496  25564.458479    941.915152   -130.290924
PG10 -23513.150197 -11387.386136   5817.317278    -42.120540
PG11  22533.739105 -11317.546702  -8268.991775   -244.861506
PG12   7412.281616 -13419.853134 -21960.927673   -391.461545
PG13  13291.857066  -9910.097167  20521.058313    537.143464
PG14  21420.245802  13594.174491   8146.435871     98.183504
PG15   6062.225633 -19136.212623  16802.213350     51.015459
PG16 -22393.731808   1449.803653  14245.090011   -489.062469
PG17  13136.839966  17010.687078 -15107.738170    719.077077
PG18  -5207.345577 -14822.748166  21388.073122   -316.721653
PG19  14888.387555   9615.560181 -20100.233954    333.724699
PG20  24863.150221  -2889.751906   8628.164936    426.748732
PG21 -16909.538703  19777.465815  -1197.978834    152.905042
PG22 -15244.337898  -5797.959032 -20542.601463    501.478446
PG23 -14729.649599 -15388.691375  15967.491086     35.459199
PG24  13292.755348 -21874.612181  -6565.083822   -232.796168
PG25  -6722.496821 -16745.410938 -19887.048330    451.328870
PG26 -26266.461288  -3917.152077   3065.994356    238.500949
PG27 -13962.470629   5680.177033  21589.742524     11.863221
PG28 -17156.591999  -2786.909958 -20103.045103     83.572342
PG29  -3323.631425 -26289.634085   -776.271129   -603.511514
PG30  12599.886128   9837.676802  21344.884926   -509.498927
PG31 -22310.982588   7472.524774 -12898.438115   -218.628274
PG32 -15179.082879 -14196.719646 -16469.772391   -505.310565
PJ02 -28933.315590  21343.890488  27070.974028     -0.706514
PJ03 -31602.866207  27183.082780  11013.715929      7.146263
PJ04 -23124.200415  22006.539924 -22407.586529     95.687386
PR01    955.732043 -14916.584139  20668.526495     59.894583
PR02 -11654.562182 -21705.180836   6780.593763    -22.665067
PR03 -17399.908213 -15384.723285 -10561.775682     80.128619
PR04 -13163.485876   -952.875409 -21799.622102    192.107008
PR05  -2007.377764  14087.028383 -21151.672891    114.554469
PR07  17398.959494  14719.945277  11452.062598     58.551520
PR08  13157.002179    543.334892  21901.199862    -71.343460
PR09   6609.931432  10308.136257  22407.823371    127.086869
PR11  24973.276262  -4411.512503  -2823.548846    -85.454106
PR12  13132.827200 -10689.806473 -19042.625258     28.361759
PR13  -4239.525584 -10533.375948 -22850.164119    -36.315157
PR14 -21687.782464  -3688.629848 -12875.279670     24.845910
PR15 -24704.024737   4802.049378   4158.073717     88.424956
PR16 -13329.066361  10635.312830  18969.134818     15.892240
PR17  -9056.503777  -5607.750454  23176.746797    641.104098
PR18 -14092.927903  11075.124647  18134.546017     87.787491
PR19 -13094.848874  21292.595973   5089.949556   -237.100813
PR20  -2728.155551  20422.783137 -15010.390399    -95.153953
PR21   9564.086965   4323.492130 -23255.142917    -17.005944
PR22  14852.314627 -11392.356229 -17313.889142     83.282817
PR24   1336.313158 -20324.889901  15353.146118    -13.017102
PR25   8982.333521   6321.694911 -23022.662060     58.636738
EOF
